{
  "type": "FeatureCollection",
  "features": [
    {
      "type": "Feature",
      "properties": {
        "norad_id": 37781,
        "name": "HAIYANG-2A",
        "group": "resource",
        "lat": 18.426649702898114,
        "lon": 165.02717879900408,
        "alt_km": 967.7552375131945,
        "timestamp": "2025-12-06T20:37:55.715862+00:00",
        "meta_object_name": "HAIYANG-2A",
        "meta_object_id": "2011-043A",
        "meta_epoch": "2025-12-06T14:37:42.348288",
        "meta_mean_motion": 13.78834604,
        "meta_eccentricity": 0.00016539,
        "meta_inclination": 99.3377,
        "meta_ra_of_asc_node": 341.6385,
        "meta_arg_of_pericenter": 93.1848,
        "meta_mean_anomaly": 266.9492,
        "meta_ephemeris_type": 0,
        "meta_classification_type": "U",
        "meta_norad_cat_id": 37781,
        "meta_element_set_no": 999,
        "meta_rev_at_epoch": 72014,
        "meta_bstar": 4.7154944e-05,
        "meta_mean_motion_dot": 4e-08,
        "meta_mean_motion_ddot": 0,
        "tle_line1": "1 37781U 11043A   25340.60951792  .00000004  00000+0  47155-4 0  9997",
        "tle_line2": "2 37781  99.3377 341.6385 0001653  93.1848 266.9492 13.78834604720140"
      },
      "geometry": {
        "type": "Point",
        "coordinates": [
          165.02717879900408,
          18.426649702898114
        ]
      }
    },
    {
      "type": "Feature",
      "properties": {
        "norad_id": 37791,
        "name": "RASAT",
        "group": "resource",
        "lat": -15.74969509202555,
        "lon": -112.08729215154162,
        "alt_km": 678.6194568912097,
        "timestamp": "2025-12-06T20:37:55.715873+00:00",
        "meta_object_name": "RASAT",
        "meta_object_id": "2011-044D",
        "meta_epoch": "2025-12-06T13:28:35.158656",
        "meta_mean_motion": 14.67896449,
        "meta_eccentricity": 0.00219501,
        "meta_inclination": 98.0657,
        "meta_ra_of_asc_node": 69.911,
        "meta_arg_of_pericenter": 83.681,
        "meta_mean_anomaly": 337.2479,
        "meta_ephemeris_type": 0,
        "meta_classification_type": "U",
        "meta_norad_cat_id": 37791,
        "meta_element_set_no": 999,
        "meta_rev_at_epoch": 76492,
        "meta_bstar": 0.00023037029,
        "meta_mean_motion_dot": 1.273e-05,
        "meta_mean_motion_ddot": 0,
        "tle_line1": "1 37791U 11044D   25340.56151804  .00001273  00000+0  23037-3 0  9991",
        "tle_line2": "2 37791  98.0657  69.9110 0021950  83.6810 337.2479 14.67896449764924"
      },
      "geometry": {
        "type": "Point",
        "coordinates": [
          -112.08729215154162,
          -15.74969509202555
        ]
      }
    },
    {
      "type": "Feature",
      "properties": {
        "norad_id": 37841,
        "name": "SRMSAT",
        "group": "resource",
        "lat": 3.6243144256108004,
        "lon": 153.5857595438369,
        "alt_km": 855.9614647156013,
        "timestamp": "2025-12-06T20:37:55.715884+00:00",
        "meta_object_name": "SRMSAT",
        "meta_object_id": "2011-058D",
        "meta_epoch": "2025-12-06T15:53:29.180256",
        "meta_mean_motion": 14.11508311,
        "meta_eccentricity": 0.00117143,
        "meta_inclination": 19.9699,
        "meta_ra_of_asc_node": 144.7353,
        "meta_arg_of_pericenter": 245.9297,
        "meta_mean_anomaly": 198.7661,
        "meta_ephemeris_type": 0,
        "meta_classification_type": "U",
        "meta_norad_cat_id": 37841,
        "meta_element_set_no": 999,
        "meta_rev_at_epoch": 73058,
        "meta_bstar": 0.00015414847,
        "meta_mean_motion_dot": 5.49e-06,
        "meta_mean_motion_ddot": 0,
        "tle_line1": "1 37841U 11058D   25340.66214329  .00000549  00000+0  15415-3 0  9991",
        "tle_line2": "2 37841  19.9699 144.7353 0011714 245.9297 198.7661 14.11508311730583"
      },
      "geometry": {
        "type": "Point",
        "coordinates": [
          153.5857595438369,
          3.6243144256108004
        ]
      }
    },
    {
      "type": "Feature",
      "properties": {
        "norad_id": 38012,
        "name": "PLEIADES 1A",
        "group": "resource",
        "lat": -8.254606801458202,
        "lon": -127.47732241576306,
        "alt_km": 702.1623369234721,
        "timestamp": "2025-12-06T20:37:55.715896+00:00",
        "meta_object_name": "PLEIADES 1A",
        "meta_object_id": "2011-076F",
        "meta_epoch": "2025-12-06T15:33:36.408384",
        "meta_mean_motion": 14.58552729,
        "meta_eccentricity": 0.00013629,
        "meta_inclination": 98.1832,
        "meta_ra_of_asc_node": 53.5108,
        "meta_arg_of_pericenter": 79.5606,
        "meta_mean_anomaly": 79.6286,
        "meta_ephemeris_type": 0,
        "meta_classification_type": "U",
        "meta_norad_cat_id": 38012,
        "meta_element_set_no": 999,
        "meta_rev_at_epoch": 74392,
        "meta_bstar": 0.0001975916,
        "meta_mean_motion_dot": 8.73e-06,
        "meta_mean_motion_ddot": 0,
        "tle_line1": "1 38012U 11076F   25340.64833806  .00000873  00000+0  19759-3 0  9992",
        "tle_line2": "2 38012  98.1832  53.5108 0001362  79.5606  79.6286 14.58552729743925"
      },
      "geometry": {
        "type": "Point",
        "coordinates": [
          -127.47732241576306,
          -8.254606801458202
        ]
      }
    },
    {
      "type": "Feature",
      "properties": {
        "norad_id": 38038,
        "name": "ZIYUAN 1-02C (ZY 1-02C)",
        "group": "resource",
        "lat": 9.472173062145906,
        "lon": -131.59977674742618,
        "alt_km": 761.9605130487671,
        "timestamp": "2025-12-06T20:37:55.715907+00:00",
        "meta_object_name": "ZIYUAN 1-02C (ZY 1-02C)",
        "meta_object_id": "2011-079A",
        "meta_epoch": "2025-12-06T15:33:04.323744",
        "meta_mean_motion": 14.38001986,
        "meta_eccentricity": 0.00069451,
        "meta_inclination": 98.4343,
        "meta_ra_of_asc_node": 46.7739,
        "meta_arg_of_pericenter": 155.3149,
        "meta_mean_anomaly": 359.6438,
        "meta_ephemeris_type": 0,
        "meta_classification_type": "U",
        "meta_norad_cat_id": 38038,
        "meta_element_set_no": 999,
        "meta_rev_at_epoch": 73153,
        "meta_bstar": 0.00034054212,
        "meta_mean_motion_dot": 9.87e-06,
        "meta_mean_motion_ddot": 0,
        "tle_line1": "1 38038U 11079A   25340.64796671  .00000987  00000+0  34054-3 0  9992",
        "tle_line2": "2 38038  98.4343  46.7739 0006945 155.3149 359.6438 14.38001986731530"
      },
      "geometry": {
        "type": "Point",
        "coordinates": [
          -131.59977674742618,
          9.472173062145906
        ]
      }
    },
    {
      "type": "Feature",
      "properties": {
        "norad_id": 38046,
        "name": "ZIYUAN 3-1 (ZY 3-1)",
        "group": "resource",
        "lat": 78.7985823761635,
        "lon": -93.34175524161996,
        "alt_km": 358.6458397715378,
        "timestamp": "2025-12-06T20:37:55.715918+00:00",
        "meta_object_name": "ZIYUAN 3-1 (ZY 3-1)",
        "meta_object_id": "2012-001A",
        "meta_epoch": "2025-12-06T15:36:59.764608",
        "meta_mean_motion": 15.67420202,
        "meta_eccentricity": 0.00021038,
        "meta_inclination": 97.1762,
        "meta_ra_of_asc_node": 46.9313,
        "meta_arg_of_pericenter": 18.4566,
        "meta_mean_anomaly": 341.6771,
        "meta_ephemeris_type": 0,
        "meta_classification_type": "U",
        "meta_norad_cat_id": 38046,
        "meta_element_set_no": 999,
        "meta_rev_at_epoch": 77401,
        "meta_bstar": 0.00086742317,
        "meta_mean_motion_dot": 0.00094466,
        "meta_mean_motion_ddot": 0,
        "tle_line1": "1 38046U 12001A   25340.65069172  .00094466  00000+0  86742-3 0  9993",
        "tle_line2": "2 38046  97.1762  46.9313 0002103  18.4566 341.6771 15.67420202774014"
      },
      "geometry": {
        "type": "Point",
        "coordinates": [
          -93.34175524161996,
          78.7985823761635
        ]
      }
    },
    {
      "type": "Feature",
      "properties": {
        "norad_id": 38338,
        "name": "ARIRANG-3 (KOMPSAT-3)",
        "group": "resource",
        "lat": 18.672056312283427,
        "lon": -67.43351629513184,
        "alt_km": 684.1385460741485,
        "timestamp": "2025-12-06T20:37:55.715929+00:00",
        "meta_object_name": "ARIRANG-3 (KOMPSAT-3)",
        "meta_object_id": "2012-025B",
        "meta_epoch": "2025-12-06T13:58:28.386336",
        "meta_mean_motion": 14.61700049,
        "meta_eccentricity": 0.00057964,
        "meta_inclination": 98.3314,
        "meta_ra_of_asc_node": 295.1256,
        "meta_arg_of_pericenter": 358.6287,
        "meta_mean_anomaly": 1.4896,
        "meta_ephemeris_type": 0,
        "meta_classification_type": "U",
        "meta_norad_cat_id": 38338,
        "meta_element_set_no": 999,
        "meta_rev_at_epoch": 72320,
        "meta_bstar": 0.00024536074,
        "meta_mean_motion_dot": 1.174e-05,
        "meta_mean_motion_ddot": 0,
        "tle_line1": "1 38338U 12025B   25340.58227299  .00001174  00000+0  24536-3 0  9998",
        "tle_line2": "2 38338  98.3314 295.1256 0005796 358.6287   1.4896 14.61700049723205"
      },
      "geometry": {
        "type": "Point",
        "coordinates": [
          -67.43351629513184,
          18.672056312283427
        ]
      }
    }
  ]
}